IRIDIUM 138             
1 43071U 17083B   26194.40989762  .00000138  00000+0  42079-4 0  9998
2 43071  86.3998 310.7531 0002067  92.1611 267.9821 14.34218244447895
IRIDIUM 116             
1 43072U 17083C   26194.37818356  .00000134  00000+0  40653-4 0  9997
2 43072  86.3985 311.0527 0002439  99.2861 260.8611 14.34217437447925
IRIDIUM 130             
1 43073U 17083D   26194.41624316  .00000131  00000+0  39579-4 0  9996
2 43073  86.3992 311.3147 0002228 100.8989 259.2457 14.34217508447874
IRIDIUM 151             
1 43074U 17083E   26194.39087088  .00000141  00000+0  43380-4 0  9999
2 43074  86.3986 311.1056 0002243  95.3361 264.8090 14.34217809447895
IRIDIUM 134             
1 43075U 17083F   26194.35915716  .00000117  00000+0  34762-4 0  9991
2 43075  86.3986 311.1273 0002211  95.7016 264.4432 14.34218218447850
IRIDIUM 137             
1 43076U 17083G   26194.37184383  .00000128  00000+0  38625-4 0  9996
2 43076  86.3989 311.2154 0002671  93.8582 266.2919 14.34218201447920
IRIDIUM 141             
1 43077U 17083H   26194.36549917  .00000116  00000+0  34446-4 0  9998
2 43077  86.3983 311.0471 0002169  93.5783 266.5661 14.34217717447925
IRIDIUM 153             
1 43078U 17083J   26194.31767836  .00000065  00000+0  15988-4 0  9999
2 43078  86.3960 279.5468 0002115  94.4077 265.7360 14.34217742449020
IRIDIUM 131             
1 43079U 17083K   26194.42258400  .00000061  00000+0  14882-4 0  9992
2 43079  86.3991 311.2108 0002244  93.0177 267.1276 14.34217834447863
IRIDIUM 144             
1 43249U 18030A   26194.32402133  .00000056  00000+0  12863-4 0  9998
2 43249  86.3957 279.4726 0002382  97.8417 262.3049 14.34217778433886
IRIDIUM 149             
1 43250U 18030B   26194.33036411  .00000111  00000+0  32632-4 0  9991
2 43250  86.3957 279.4366 0002259  93.4262 266.7192 14.34217911433900
IRIDIUM 157             
1 43251U 18030C   26194.20985722  .00000137  00000+0  41893-4 0  9993
2 43251  86.3961 279.5410 0002259  94.2415 265.9039 14.34217569433861
IRIDIUM 140             
1 43252U 18030D   26193.74050474  .00000149  00000+0  46127-4 0  9997
2 43252  86.3960 279.7497 0002231  95.7423 264.4028 14.34217052433851
IRIDIUM 145             
1 43253U 18030E   26193.72781600  .00000137  00000+0  41833-4 0  9994
2 43253  86.3959 279.7269 0002472 100.6657 259.4817 14.34217167433788
IRIDIUM 146             
1 43254U 18030F   26194.33670603  .00000064  00000+0  15927-4 0  9997
2 43254  86.3960 279.4848 0002359  96.8840 263.2624 14.34217449433888
IRIDIUM 148             
1 43255U 18030G   26194.30499666  .00000149  00000+0  46108-4 0  9992
2 43255  86.3961 279.5414 0002349  94.0252 266.1213 14.34217625433912
IRIDIUM 142             
1 43256U 18030H   26194.20351235  .00000111  00000+0  32706-4 0  9999
2 43256  86.3955 279.4720 0002405  97.6467 262.5002 14.34218017433861
IRIDIUM 150             
1 43257U 18030J   26194.31133275 -.00000204  00000+0 -79982-4 0  9996
2 43257  86.3959 279.5438 0002118  96.3708 263.7729 14.34216194433906
IRIDIUM 143             
1 43258U 18030K   26193.73416068  .00000072  00000+0  18596-4 0  9991
2 43258  86.3963 279.8786 0002314  96.3911 263.7548 14.34217359433751
IRIDIUM 161             
1 43478U 18047C   26192.15744448  .00000172  00000+0  45078-4 0  9990
2 43478  86.4467  78.4474 0002306  78.8180 281.3280 14.43284936428596
IRIDIUM 152             
1 43479U 18047D   26194.19526038  .00000149  00000+0  46182-4 0  9991
2 43479  86.3938  77.4561 0002133  83.5824 276.5614 14.34219718426211
IRIDIUM 147             
1 43480U 18047E   26194.20159912  .00000148  00000+0  45839-4 0  9995
2 43480  86.3940  77.4591 0002266  88.2952 271.8503 14.34217516426219
IRIDIUM 110             
1 43481U 18047F   26193.99863789  .00000146  00000+0  45155-4 0  9994
2 43481  86.3943  77.6367 0002156  76.5156 283.6280 14.34217966426177
IRIDIUM 162             
1 43482U 18047G   26191.11118814  .00000189  00000+0  50126-4 0  9990
2 43482  86.4467  78.7759 0002187  84.2783 275.8667 14.43283456428433
IRIDIUM 160             
1 43569U 18061A   26194.50261980  .00000119  00000+0  35601-4 0  9995
2 43569  86.3940  45.7900 0002224  86.0357 274.1093 14.34216585417145
IRIDIUM 166             
1 43570U 18061B   26194.52799214  .00000034  00000+0  50236-5 0  9993
2 43570  86.3941  45.7294 0002260  90.1763 269.9692 14.34217384417179
IRIDIUM 158             
1 43571U 18061C   26194.00789914  .00000059  00000+0  13891-4 0  9995
2 43571  86.3940  45.9570 0002061  86.4900 273.6532 14.34217395417063
IRIDIUM 165             
1 43572U 18061D   26193.54488934  .00000091  00000+0  25565-4 0  9999
2 43572  86.3942  46.1976 0002266  90.8182 269.3273 14.34217303417026
IRIDIUM 155             
1 43573U 18061E   26193.99521353  .00000080  00000+0  21377-4 0  9997
2 43573  86.3939  45.8772 0002101  89.0391 271.1045 14.34217272417059
IRIDIUM 154             
1 43574U 18061F   26194.53433337  .00000124  00000+0  37313-4 0  9999
2 43574  86.3939  45.7864 0002291  90.0623 270.0835 14.34217778417181
